[{"OBJECT_NAME":"ONEWEB-0224","OBJECT_ID":"2021-045AD","EPOCH":"2026-03-07T02:20:15.870624","MEAN_MOTION":13.15539216,"ECCENTRICITY":0.00022255,"INCLINATION":87.8967,"RA_OF_ASC_NODE":279.6092,"ARG_OF_PERICENTER":90.1898,"MEAN_ANOMALY":269.9487,"EPHEMERIS_TYPE":0,"CLASSIFICATION_TYPE":"U","NORAD_CAT_ID":48794,"ELEMENT_SET_NO":999,"REV_AT_EPOCH":23085,"BSTAR":0.0062773376,"MEAN_MOTION_DOT":2.376e-5,"MEAN_MOTION_DDOT":0},{"OBJECT_NAME":"ONEWEB-0233","OBJECT_ID":"2021-045AE","EPOCH":"2026-03-07T00:37:22.264896","MEAN_MOTION":13.15548141,"ECCENTRICITY":0.00017746,"INCLINATION":87.8936,"RA_OF_ASC_NODE":279.637,"ARG_OF_PERICENTER":97.632,"MEAN_ANOMALY":262.5012,"EPHEMERIS_TYPE":0,"CLASSIFICATION_TYPE":"U","NORAD_CAT_ID":48795,"ELEMENT_SET_NO":999,"REV_AT_EPOCH":23086,"BSTAR":0.00035938722,"MEAN_MOTION_DOT":1.48e-6,"MEAN_MOTION_DDOT":0},{"OBJECT_NAME":"ONEWEB-0190","OBJECT_ID":"2021-045AF","EPOCH":"2026-03-07T02:08:50.135424","MEAN_MOTION":13.15548502,"ECCENTRICITY":0.00018111,"INCLINATION":87.894,"RA_OF_ASC_NODE":279.585,"ARG_OF_PERICENTER":114.6631,"MEAN_ANOMALY":245.4688,"EPHEMERIS_TYPE":0,"CLASSIFICATION_TYPE":"U","NORAD_CAT_ID":48796,"ELEMENT_SET_NO":999,"REV_AT_EPOCH":23094,"BSTAR":-5.8662848e-5,"MEAN_MOTION_DOT":-9.0e-8,"MEAN_MOTION_DDOT":0},{"OBJECT_NAME":"ONEWEB-0236","OBJECT_ID":"2021-045AG","EPOCH":"2026-03-07T02:33:56.165184","MEAN_MOTION":13.15548106,"ECCENTRICITY":0.00016157,"INCLINATION":87.8933,"RA_OF_ASC_NODE":279.5934,"ARG_OF_PERICENTER":84.7124,"MEAN_ANOMALY":275.419,"EPHEMERIS_TYPE":0,"CLASSIFICATION_TYPE":"U","NORAD_CAT_ID":48797,"ELEMENT_SET_NO":999,"REV_AT_EPOCH":23083,"BSTAR":0.00046008848,"MEAN_MOTION_DOT":1.86e-6,"MEAN_MOTION_DDOT":0},{"OBJECT_NAME":"ONEWEB-0248","OBJECT_ID":"2021-045AH","EPOCH":"2026-03-07T02:52:12.158688","MEAN_MOTION":13.15550345,"ECCENTRICITY":0.00019544,"INCLINATION":87.8949,"RA_OF_ASC_NODE":279.5639,"ARG_OF_PERICENTER":100.6185,"MEAN_ANOMALY":259.5166,"EPHEMERIS_TYPE":0,"CLASSIFICATION_TYPE":"U","NORAD_CAT_ID":48798,"ELEMENT_SET_NO":999,"REV_AT_EPOCH":23099,"BSTAR":0.00035030767,"MEAN_MOTION_DOT":1.45e-6,"MEAN_MOTION_DDOT":0},{"OBJECT_NAME":"ONEWEB-0225","OBJECT_ID":"2021-045AJ","EPOCH":"2026-03-07T03:24:07.894656","MEAN_MOTION":13.15548076,"ECCENTRICITY":0.00018097,"INCLINATION":87.894,"RA_OF_ASC_NODE":279.5756,"ARG_OF_PERICENTER":108.8611,"MEAN_ANOMALY":251.2716,"EPHEMERIS_TYPE":0,"CLASSIFICATION_TYPE":"U","NORAD_CAT_ID":48799,"ELEMENT_SET_NO":999,"REV_AT_EPOCH":23100,"BSTAR":-7.3649322e-5,"MEAN_MOTION_DOT":-1.5e-7,"MEAN_MOTION_DDOT":0},{"OBJECT_NAME":"ONEWEB-0215","OBJECT_ID":"2021-045AK","EPOCH":"2026-03-07T02:40:47.577792","MEAN_MOTION":13.15548417,"ECCENTRICITY":0.0001965,"INCLINATION":87.8952,"RA_OF_ASC_NODE":279.5544,"ARG_OF_PERICENTER":110.4108,"MEAN_ANOMALY":249.7233,"EPHEMERIS_TYPE":0,"CLASSIFICATION_TYPE":"U","NORAD_CAT_ID":48800,"ELEMENT_SET_NO":999,"REV_AT_EPOCH":23087,"BSTAR":0.00052290078,"MEAN_MOTION_DOT":2.1e-6,"MEAN_MOTION_DDOT":0},{"OBJECT_NAME":"ONEWEB-0216","OBJECT_ID":"2021-045AL","EPOCH":"2026-03-07T01:04:57.893664","MEAN_MOTION":13.15551807,"ECCENTRICITY":0.00014905,"INCLINATION":87.8943,"RA_OF_ASC_NODE":279.587,"ARG_OF_PERICENTER":85.4863,"MEAN_ANOMALY":274.6437,"EPHEMERIS_TYPE":0,"CLASSIFICATION_TYPE":"U","NORAD_CAT_ID":48801,"ELEMENT_SET_NO":999,"REV_AT_EPOCH":23087,"BSTAR":0.00022519332,"MEAN_MOTION_DOT":9.8e-7,"MEAN_MOTION_DDOT":0},{"OBJECT_NAME":"ONEWEB-0239","OBJECT_ID":"2021-045AM","EPOCH":"2026-03-07T03:01:19.265088","MEAN_MOTION":13.15547806,"ECCENTRICITY":0.00022212,"INCLINATION":87.8938,"RA_OF_ASC_NODE":279.5854,"ARG_OF_PERICENTER":106.7645,"MEAN_ANOMALY":253.3729,"EPHEMERIS_TYPE":0,"CLASSIFICATION_TYPE":"U","NORAD_CAT_ID":48802,"ELEMENT_SET_NO":999,"REV_AT_EPOCH":23092,"BSTAR":0.00037582755,"MEAN_MOTION_DOT":1.54e-6,"MEAN_MOTION_DDOT":0},{"OBJECT_NAME":"ONEWEB-0249","OBJECT_ID":"2021-060A","EPOCH":"2026-03-07T05:12:26.444736","MEAN_MOTION":13.16593808,"ECCENTRICITY":0.00017829,"INCLINATION":87.9004,"RA_OF_ASC_NODE":249.0616,"ARG_OF_PERICENTER":96.8153,"MEAN_ANOMALY":263.3181,"EPHEMERIS_TYPE":0,"CLASSIFICATION_TYPE":"U","NORAD_CAT_ID":48967,"ELEMENT_SET_NO":999,"REV_AT_EPOCH":22619,"BSTAR":-7.8249529e-5,"MEAN_MOTION_DOT":-1.7e-7,"MEAN_MOTION_DDOT":0},{"OBJECT_NAME":"ONEWEB-0250","OBJECT_ID":"2021-060B","EPOCH":"2026-03-06T23:21:07.417728","MEAN_MOTION":13.25826398,"ECCENTRICITY":0.00026211,"INCLINATION":87.9001,"RA_OF_ASC_NODE":247.1983,"ARG_OF_PERICENTER":86.4103,"MEAN_ANOMALY":273.7333,"EPHEMERIS_TYPE":0,"CLASSIFICATION_TYPE":"U","NORAD_CAT_ID":48968,"ELEMENT_SET_NO":999,"REV_AT_EPOCH":22667,"BSTAR":0.0001248586,"MEAN_MOTION_DOT":6.8e-7,"MEAN_MOTION_DDOT":0},{"OBJECT_NAME":"ONEWEB-0252","OBJECT_ID":"2021-060D","EPOCH":"2026-03-07T00:28:35.143680","MEAN_MOTION":13.16592854,"ECCENTRICITY":0.00013876,"INCLINATION":87.8999,"RA_OF_ASC_NODE":249.0935,"ARG_OF_PERICENTER":100.3841,"MEAN_ANOMALY":259.7447,"EPHEMERIS_TYPE":0,"CLASSIFICATION_TYPE":"U","NORAD_CAT_ID":48970,"ELEMENT_SET_NO":999,"REV_AT_EPOCH":22621,"BSTAR":8.5527524e-5,"MEAN_MOTION_DOT":4.6e-7,"MEAN_MOTION_DDOT":0},{"OBJECT_NAME":"ONEWEB-0253","OBJECT_ID":"2021-060E","EPOCH":"2026-03-07T00:12:38.859840","MEAN_MOTION":13.16594376,"ECCENTRICITY":0.00016766,"INCLINATION":87.9003,"RA_OF_ASC_NODE":249.1011,"ARG_OF_PERICENTER":96.6136,"MEAN_ANOMALY":263.5185,"EPHEMERIS_TYPE":0,"CLASSIFICATION_TYPE":"U","NORAD_CAT_ID":48971,"ELEMENT_SET_NO":999,"REV_AT_EPOCH":22614,"BSTAR":0.00041887443,"MEAN_MOTION_DOT":1.73e-6,"MEAN_MOTION_DDOT":0},{"OBJECT_NAME":"ONEWEB-0254","OBJECT_ID":"2021-060F","EPOCH":"2026-03-07T00:26:18.299904","MEAN_MOTION":13.16593534,"ECCENTRICITY":0.00018682,"INCLINATION":87.9004,"RA_OF_ASC_NODE":249.0939,"ARG_OF_PERICENTER":101.717,"MEAN_ANOMALY":258.4171,"EPHEMERIS_TYPE":0,"CLASSIFICATION_TYPE":"U","NORAD_CAT_ID":48972,"ELEMENT_SET_NO":999,"REV_AT_EPOCH":22614,"BSTAR":0.00018888796,"MEAN_MOTION_DOT":8.5e-7,"MEAN_MOTION_DDOT":0},{"OBJECT_NAME":"ONEWEB-0255","OBJECT_ID":"2021-060G","EPOCH":"2026-03-07T01:21:01.700352","MEAN_MOTION":13.16594658,"ECCENTRICITY":0.00017739,"INCLINATION":87.9003,"RA_OF_ASC_NODE":249.0958,"ARG_OF_PERICENTER":100.4892,"MEAN_ANOMALY":259.6439,"EPHEMERIS_TYPE":0,"CLASSIFICATION_TYPE":"U","NORAD_CAT_ID":48973,"ELEMENT_SET_NO":999,"REV_AT_EPOCH":22622,"BSTAR":0.00019493283,"MEAN_MOTION_DOT":8.7e-7,"MEAN_MOTION_DDOT":0},{"OBJECT_NAME":"ONEWEB-0256","OBJECT_ID":"2021-060H","EPOCH":"2026-03-07T05:37:31.096416","MEAN_MOTION":13.16593789,"ECCENTRICITY":0.00015109,"INCLINATION":87.9006,"RA_OF_ASC_NODE":249.0674,"ARG_OF_PERICENTER":94.5558,"MEAN_ANOMALY":265.5746,"EPHEMERIS_TYPE":0,"CLASSIFICATION_TYPE":"U","NORAD_CAT_ID":48974,"ELEMENT_SET_NO":999,"REV_AT_EPOCH":22621,"BSTAR":1.6697372e-5,"MEAN_MOTION_DOT":1.9e-7,"MEAN_MOTION_DDOT":0},{"OBJECT_NAME":"ONEWEB-0257","OBJECT_ID":"2021-060J","EPOCH":"2026-03-07T00:55:56.513856","MEAN_MOTION":13.16593848,"ECCENTRICITY":0.00016167,"INCLINATION":87.9004,"RA_OF_ASC_NODE":249.0903,"ARG_OF_PERICENTER":101.0702,"MEAN_ANOMALY":259.0611,"EPHEMERIS_TYPE":0,"CLASSIFICATION_TYPE":"U","NORAD_CAT_ID":48975,"ELEMENT_SET_NO":999,"REV_AT_EPOCH":22614,"BSTAR":0.00036573721,"MEAN_MOTION_DOT":1.53e-6,"MEAN_MOTION_DDOT":0},{"OBJECT_NAME":"ONEWEB-0258","OBJECT_ID":"2021-060K","EPOCH":"2026-03-07T00:58:13.571904","MEAN_MOTION":13.16593836,"ECCENTRICITY":0.00016714,"INCLINATION":87.9001,"RA_OF_ASC_NODE":249.1014,"ARG_OF_PERICENTER":92.6683,"MEAN_ANOMALY":267.4639,"EPHEMERIS_TYPE":0,"CLASSIFICATION_TYPE":"U","NORAD_CAT_ID":48976,"ELEMENT_SET_NO":999,"REV_AT_EPOCH":22615,"BSTAR":0.00029664315,"MEAN_MOTION_DOT":1.26e-6,"MEAN_MOTION_DDOT":0},{"OBJECT_NAME":"ONEWEB-0259","OBJECT_ID":"2021-060L","EPOCH":"2026-03-07T00:49:05.947104","MEAN_MOTION":13.16593287,"ECCENTRICITY":0.00016926,"INCLINATION":87.8998,"RA_OF_ASC_NODE":249.1019,"ARG_OF_PERICENTER":97.9121,"MEAN_ANOMALY":262.2202,"EPHEMERIS_TYPE":0,"CLASSIFICATION_TYPE":"U","NORAD_CAT_ID":48977,"ELEMENT_SET_NO":999,"REV_AT_EPOCH":22618,"BSTAR":0.00033931474,"MEAN_MOTION_DOT":1.43e-6,"MEAN_MOTION_DDOT":0},{"OBJECT_NAME":"ONEWEB-0260","OBJECT_ID":"2021-060M","EPOCH":"2026-03-07T06:04:51.711456","MEAN_MOTION":13.16594435,"ECCENTRICITY":0.00011718,"INCLINATION":87.9,"RA_OF_ASC_NODE":249.0638,"ARG_OF_PERICENTER":97.08,"MEAN_ANOMALY":263.0464,"EPHEMERIS_TYPE":0,"CLASSIFICATION_TYPE":"U","NORAD_CAT_ID":48978,"ELEMENT_SET_NO":999,"REV_AT_EPOCH":22619,"BSTAR":0.00035466808,"MEAN_MOTION_DOT":1.48e-6,"MEAN_MOTION_DDOT":0},{"OBJECT_NAME":"ONEWEB-0261","OBJECT_ID":"2021-060N","EPOCH":"2026-03-06T23:53:11.040288","MEAN_MOTION":13.16591176,"ECCENTRICITY":0.00017145,"INCLINATION":87.8994,"RA_OF_ASC_NODE":249.1154,"ARG_OF_PERICENTER":107.7744,"MEAN_ANOMALY":252.3575,"EPHEMERIS_TYPE":0,"CLASSIFICATION_TYPE":"U","NORAD_CAT_ID":48979,"ELEMENT_SET_NO":999,"REV_AT_EPOCH":22621,"BSTAR":-4.0972268e-5,"MEAN_MOTION_DOT":-3.0e-8,"MEAN_MOTION_DDOT":0},{"OBJECT_NAME":"ONEWEB-0262","OBJECT_ID":"2021-060P","EPOCH":"2026-03-07T01:14:11.056704","MEAN_MOTION":13.16594359,"ECCENTRICITY":0.00019038,"INCLINATION":87.9003,"RA_OF_ASC_NODE":249.0862,"ARG_OF_PERICENTER":96.7914,"MEAN_ANOMALY":263.3434,"EPHEMERIS_TYPE":0,"CLASSIFICATION_TYPE":"U","NORAD_CAT_ID":48980,"ELEMENT_SET_NO":999,"REV_AT_EPOCH":22618,"BSTAR":-7.96269e-6,"MEAN_MOTION_DOT":1.0e-7,"MEAN_MOTION_DDOT":0},{"OBJECT_NAME":"ONEWEB-0263","OBJECT_ID":"2021-060Q","EPOCH":"2026-03-07T00:10:20.231040","MEAN_MOTION":13.16593209,"ECCENTRICITY":0.00018213,"INCLINATION":87.9005,"RA_OF_ASC_NODE":249.1061,"ARG_OF_PERICENTER":106.7976,"MEAN_ANOMALY":253.3355,"EPHEMERIS_TYPE":0,"CLASSIFICATION_TYPE":"U","NORAD_CAT_ID":48981,"ELEMENT_SET_NO":999,"REV_AT_EPOCH":22614,"BSTAR":7.7215711e-5,"MEAN_MOTION_DOT":4.2e-7,"MEAN_MOTION_DDOT":0}]
